     2.100          NAVIGATION                              RINEX VERSION / TYPE
fic2rin                                 07/09/2010 00:07:50 PGM / RUN BY / DATE
                                                            END OF HEADER
13 10  7  8 14  0  0.0  .302060972899D-03 -.682121026330D-12  .000000000000D+00
     .108000000000D+03  .640312500000D+02  .410195657724D-08 -.248495316789D+01
     .340864062309D-05  .448641774710D-02  .168383121490D-05  .515373784065D+04
     .396000000000D+06  .279396772385D-07  .780001173334D+00  .108033418655D-06
     .992662875433D+00  .364750000000D+03  .176501099618D+01 -.798640409436D-08
     .202508435289D-09  .100000000000D+01  .159100000000D+04  .000000000000D+00
     .240000000000D+01  .000000000000D+00 -.107102096081D-07  .108000000000D+03
     .388806000000D+06  .400000000000D+01
14 10  7  8 14  0  0.0  .655679032207D-04  .409272615798D-11  .000000000000D+00
     .150000000000D+02  .593125000000D+02  .428696428356D-08 -.257827871013D+01
     .313483178616D-05  .523068848997D-02  .128708779812D-05  .515375716591D+04
     .396000000000D+06  .108033418655D-06  .757933544186D+00 -.540167093277D-07
     .985912531077D+00  .367718750000D+03 -.214557027895D+01 -.815283959849D-08
     .158220876249D-09  .100000000000D+01  .159100000000D+04  .000000000000D+00
     .240000000000D+01  .000000000000D+00 -.884756445885D-08  .150000000000D+02
     .388806000000D+06  .400000000000D+01
15 10  7  8 14  0  0.0 -.243112444878D-03  .625277607469D-11  .000000000000D+00
     .180000000000D+02  .656250000000D+02  .497592155282D-08 -.270552520744D+01
     .347010791302D-05  .251454184763D-02  .166893005371D-05  .515377966309D+04
     .396000000000D+06 -.428408384323D-07  .692536780194D+00 -.465661287308D-07
     .953498091971D+00  .345187500000D+03 -.177645669461D+00 -.841392190219D-08
     .145006040084D-09  .100000000000D+01  .159100000000D+04  .000000000000D+00
     .240000000000D+01  .000000000000D+00 -.977888703346D-08  .180000000000D+02
     .388806000000D+06  .400000000000D+01
16 10  7  8 14  0  0.0 -.877128913999D-04 -.363797880709D-11  .000000000000D+00
     .300000000000D+02 -.753125000000D+02  .389694803781D-08 -.102080118744D+01
    -.388920307159D-05  .594263605308D-02  .103302299976D-04  .515379930305D+04
     .396000000000D+06 -.111758708954D-07  .283242646778D+01 -.100582838058D-06
     .972854980732D+00  .188812500000D+03 -.182830709027D+00 -.758603027432D-08
     .312155859687D-09  .100000000000D+01  .159100000000D+04  .000000000000D+00
     .240000000000D+01  .000000000000D+00 -.977888703346D-08  .300000000000D+02
     .388806000000D+06  .400000000000D+01
17 10  7  8 14  0  0.0  .160816591233D-03  .193267624127D-11  .000000000000D+00
     .780000000000D+02  .603125000000D+01  .463983612494D-08 -.211125505137D+01
     .387430191040D-06  .549064204097D-02  .653788447380D-05  .515361982918D+04
     .396000000000D+06 -.186264514923D-08 -.240817799970D+01 -.819563865662D-07
     .960298561753D+00  .254500000000D+03 -.249865188597D+01 -.790140055362D-08
     .356086260993D-09  .100000000000D+01  .159100000000D+04  .000000000000D+00
     .240000000000D+01  .000000000000D+00 -.102445483208D-07  .780000000000D+02
     .388806000000D+06  .400000000000D+01
18 10  7  8 14  0  0.0  .795316882432D-04  .238742359215D-11  .000000000000D+00
     .690000000000D+02  .118718750000D+03  .490520432145D-08 -.674318525925D+00
     .637397170067D-05  .116406640736D-01  .871531665325D-05  .515371354675D+04
     .396000000000D+06  .614672899246D-07 -.315508079046D+00  .203028321266D-06
     .937064871325D+00  .201468750000D+03 -.232485327851D+01 -.828427364468D-08
    -.178578867098D-10  .100000000000D+01  .159100000000D+04  .000000000000D+00
     .240000000000D+01  .000000000000D+00 -.107102096081D-07  .690000000000D+02
     .388806000000D+06  .400000000000D+01
19 10  7  8 14  0  0.0 -.481018796563D-04 -.284217094304D-11  .000000000000D+00
     .100000000000D+03  .953125000000D+01  .473162566263D-08 -.281020399022D+01
     .583007931709D-06  .664911768399D-02  .653788447380D-05  .515374920082D+04
     .396000000000D+06 -.540167093277D-07 -.235326410582D+01  .186264514923D-08
     .957864880494D+00  .253593750000D+03 -.129885976032D+00 -.795211695188D-08
     .345728686702D-09  .100000000000D+01  .159100000000D+04  .000000000000D+00
     .240000000000D+01  .000000000000D+00 -.149011611938D-07  .100000000000D+03
     .388806000000D+06  .400000000000D+01
20 10  7  8 14  0  0.0  .536195002496D-04 -.454747350886D-12  .000000000000D+00
     .730000000000D+02  .928750000000D+02  .494663461862D-08 -.463724829692D+00
     .480189919472D-05  .415085232817D-02  .990927219391D-05  .515358282471D+04
     .396000000000D+06 -.204890966415D-07 -.369435483374D+00  .409781932831D-07
     .936943710986D+00  .181843750000D+03  .132445389833D+01 -.818712674098D-08
    -.700029159024D-10  .100000000000D+01  .159100000000D+04  .000000000000D+00
     .240000000000D+01  .000000000000D+00 -.791624188423D-08  .730000000000D+02
     .388806000000D+06  .400000000000D+01
21 10  7  8 14  0  0.0 -.725165009499D-04 -.272848410532D-11  .000000000000D+00
     .660000000000D+02  .590625000000D+01  .526807657939D-08  .437452943682D+00
     .415369868279D-06  .167354708537D-01  .792555510998D-05  .515365212250D+04
     .396000000000D+06 -.782310962677D-07 -.137207154534D+01  .337138772011D-06
     .932018921621D+00  .214125000000D+03 -.246358827923D+01 -.839713548868D-08
    -.476091259683D-09  .100000000000D+01  .159100000000D+04  .000000000000D+00
     .240000000000D+01  .000000000000D+00 -.121071934700D-07  .660000000000D+02
     .388806000000D+06  .400000000000D+01
22 10  7  8 14  0  0.0  .167964491993D-03 -.682121026330D-12  .000000000000D+00
     .102000000000D+03  .123812500000D+03  .490449000598D-08 -.159223508550D+01
     .648386776447D-05  .544942170382D-02  .921823084354D-05  .515372230530D+04
     .396000000000D+06  .856816768646D-07 -.310688164815D+00  .819563865662D-07
     .934750837747D+00  .185187500000D+03 -.194710663861D+01 -.810890919719D-08
     .464305054455D-11  .100000000000D+01  .159100000000D+04  .000000000000D+00
     .240000000000D+01  .000000000000D+00 -.176951289177D-07  .102000000000D+03
     .388806000000D+06  .400000000000D+01
23 10  7  8 14  0  0.0  .363844446838D-03 -.159161572810D-11  .000000000000D+00
     .150000000000D+02  .800000000000D+02  .462947855065D-08  .296705439036D+01
     .420771539211D-05  .686435122043D-02  .204145908356D-05  .515367213249D+04
     .396000000000D+06 -.130385160446D-06  .718242787546D+00  .577419996262D-07
     .967741331568D+00  .346468750000D+03  .304083861961D+01 -.820212736581D-08
     .188579283656D-09  .100000000000D+01  .159100000000D+04  .000000000000D+00
     .240000000000D+01  .000000000000D+00 -.200234353542D-07  .150000000000D+02
     .388806000000D+06  .400000000000D+01
24 10  7  8 14  0  0.0  .302687752992D-03  .318323145621D-11  .000000000000D+00
     .350000000000D+02  .525000000000D+01  .475448375762D-08 -.245691315520D+01
     .402331352234D-06  .567139824852D-02  .856630504131D-05  .515483041954D+04
     .396000000000D+06 -.707805156708D-07 -.133282291034D+01  .931322574615D-08
     .948636674754D+00  .207875000000D+03 -.459499230319D+00 -.793747348477D-08
    -.387873299337D-09  .100000000000D+01  .159100000000D+04  .000000000000D+00
     .240000000000D+01  .000000000000D+00 -.139698386192D-08  .350000000000D+02
     .388806000000D+06  .400000000000D+01
26 10  7  8 14  0  0.0 -.781323760748D-04 -.602540239925D-11  .000000000000D+00
     .200000000000D+02  .495625000000D+02  .405195449445D-08  .238024465861D+01
     .218860805035D-05  .193457758287D-01  .142306089401D-05  .515237888527D+04
     .396000000000D+06  .912696123123D-07  .776387148327D+00 -.344589352608D-06
     .990383261392D+00  .366531250000D+03  .110445998645D+01 -.777318092704D-08
     .896465912832D-10  .100000000000D+01  .159100000000D+04  .000000000000D+00
     .240000000000D+01  .000000000000D+00 -.605359673500D-08  .200000000000D+02
     .388806000000D+06  .400000000000D+01
27 10  7  8 14  0  0.0  .168239232153D-03  .352429196937D-11  .000000000000D+00
     .164000000000D+03 -.112062500000D+03  .408588447920D-08 -.253277956306D+01
    -.549852848053D-05  .215280543780D-01  .352971255779D-05  .515361472130D+04
     .396000000000D+06  .143423676491D-06  .170491524751D+01  .257045030594D-06
     .978523129976D+00  .314062500000D+03 -.140100192801D+01 -.767996275842D-08
    -.148577617426D-09  .100000000000D+01  .159100000000D+04  .000000000000D+00
     .340000000000D+01  .000000000000D+00 -.419095158577D-08  .164000000000D+03
     .388806000000D+06  .400000000000D+01
28 10  7  8 14  0  0.0 -.112275592983D-04  .113686837722D-11  .000000000000D+00
     .630000000000D+02 -.596250000000D+02  .399695220339D-08 -.147218527470D+01
    -.313669443130D-05  .159942157334D-01  .103171914816D-04  .515367881203D+04
     .396000000000D+06  .335276126862D-06  .284008611667D+01  .262632966042D-06
     .971102558479D+00  .185250000000D+03 -.195169547616D+01 -.760853121158D-08
     .159649507186D-09  .100000000000D+01  .159100000000D+04  .000000000000D+00
     .240000000000D+01  .000000000000D+00 -.107102096081D-07  .630000000000D+02
     .388806000000D+06  .400000000000D+01
29 10  7  8 14  0  0.0  .133065506816D-03  .261479726760D-11  .000000000000D+00
     .330000000000D+02  .212500000000D+01  .474198323692D-08  .592236704327D+00
     .633299350739D-07  .295672146603D-02  .650621950626D-05  .515370128441D+04
     .396000000000D+06  .260770320892D-07 -.239990034839D+01 -.745058059692D-07
     .960637591554D+00  .255906250000D+03 -.126924545907D+01 -.801390523989D-08
     .204294223960D-09  .100000000000D+01  .159100000000D+04  .000000000000D+00
     .240000000000D+01  .000000000000D+00 -.884756445885D-08  .330000000000D+02
     .388806000000D+06  .400000000000D+01
